STARLINK-2410
1 27825C 21018AQ  21325.12934219  .00003607  00000-0  24172-3 0  3250
2 27825  53.0552  97.6365 0001490  89.3912  36.2266 15.06387393    11
